# Made by eph2tle, compiled Dec 24 2023 21:50:40
# Run at Thu Dec 28 23:42:30 2023
#
#    The following TLEs (Two-Line Elements) were generated by fitting
# a numerically-integrated ephemeris,  based on the orbit given below,
# to the SDP4/SGP4 models.  Each TLE is good for the interval between
# its epoch and the epoch of the subsequent TLE (usually one day).
# The maximum deviation between the numerically integrated ephemerides
# and the TLE-based ephemeris, in kilometers,  is given for each TLE
# as the "worst residual".
#
#    This fitting is done using the 'eph2tle' code packaged with Find_Orb.
# The code has details on how the TLEs were computed :
#
#    https://github.com/Bill-Gray/find_orb/eph2tle.cpp
#
#    Be warned:  the error given is that between the numerically
# integrated ephems and the TLE model.  There will usually be at
# least some additional difference between the ephems and the actual
# motion of the satellite,  especially if the ephemerides are based
# on a short arc.  If the following orbital elements say something
# like "[based on] 10 observations 2015 Jan. 1-13",  and the TLEs
# are for 2015 May,  the extrapolation may be tenuous at best.  If
# your application requires a specific level of accuracy,  you may
# want to contact me;  I can give you some idea as to the fit of the
# underlying data (and possibly TLEs based on newer data).
#
#   You can usually find the underlying observational data,  and the
# fitted orbit,  residuals,  ephemerides,  and sometimes some comments
# about the object,  among the pages listed at
#
#    https://www.projectpluto.com/pluto/mpecs/pseudo.htm
#
#    Also,  if you use a TLE outside the "correct" time range (between
# its MJD and that of the next TLE),  all bets are off.  I've carefully
# computed and minimized the worst error over the "correct" time frame,
# but the ephemeris may (or may not) diverge wildly outside of it.
#
# Ephem range: 60218.000000 60341.000000 1.000000
# Created Thu Dec 28 23:42:02 2023
# Ephemeris start:  1 Oct 2023  0:00:00
# Ephemeris end:    1 Feb 2024  0:00:00
# Times are all TDT
# Positions/velocities are in equatorial J2000
# Orbital elements:  A10Y8MP
#    Perigee 2023 Nov 14.19126 +/- 0.000121 TT =  4:35:24 (JD 2460262.69126)
# A1: (1161.69 +/- 1.95)e-8   A2: (7.02 +/- 1.26)e-8
# A3: (182.31 +/- 9.79)e-9 AU/day^2 [1/r^2]
# Epoch 2023 Nov 14.0 TT = JDT 2460262.5                           Find_Orb
# M 298.46041528 +/- 0.038            (J2000 equator)
# n 321.76575901 +/- 0.000861         Peri.  257.07258 +/- 0.009
# a 45524.3361 +/- 0.0812             Node   349.08200 +/- 0.0024
# e   0.7421371 +/- 3.18e-5           Incl.   34.88129 +/- 0.00036
# P1611.079m/1.119d          H 33.08  G  0.15   U  8.0
# q 11739.0373 +/- 1.45    Q 79309.6350 +/- 1.46
# 23 of 25 observations 2023 Nov. 11-Dec. 10; mean residual 6".382
#
# After 2023 Dec 10 :
#
# Orbital elements:  A10Y8MP
#    Perigee 2023 Dec 26.92569 +/- 0.000748 TT = 22:12:59 (JD 2460305.42569)
# A1: (1143.6 +/- 6.5)e-8   A2: (5.24 +/- 5.51)e-8
# A3: (29.02 +/- 3.14)e-8 AU/day^2 [1/r^2]
# Epoch 2023 Dec 27.0 TT = JDT 2460305.5                           Find_Orb
# M  23.96259001 +/- 0.24             (J2000 equator)
# n 322.48196308 +/- 0.0106           Peri.  290.19795 +/- 0.07
# a 45456.9075 +/- 0.997              Node   336.79842 +/- 0.041
# e   0.7686274 +/- 0.000733          Incl.   35.14212 +/- 0.008
# P1607.501m/1.116d          H 32.85  G  0.15   U  9.7
# q 10517.4813 +/- 33.3    Q 80396.3336 +/- 33.1
# 17 of 34 observations 2023 Dec. 9-2024 Jan. 14; mean residual 7".340
#
# 1 NoradU COSPAR   Epoch.epoch     dn/dt/2  d2n/dt2/6 BSTAR    T El# C
# 2 NoradU Inclina RAAscNode Eccent  ArgPeri MeanAno  MeanMotion Rev# C

# Worst residual: 106.30 km
# MJD 60218.000000 (2023 Oct  1  0:00)
A10Y8MP
1 79956U 23999ZZF 23274.49919926  .00000000  00000-0  00000-0 0 21898
2 79956 036.4109 356.1304 5953672 226.2404 054.1082 00.89018741    08

# Worst residual: 113.24 km
# MJD 60219.000000 (2023 Oct  2  0:00)
A10Y8MP
1 79956U 23999ZZF 23275.49919926  .00000000  00000-0  00000-0 0 21899
2 79956 036.3892 356.0658 5997048 226.9735 013.2856 00.89242639    06

# Worst residual: 149.33 km
# MJD 60220.000000 (2023 Oct  3  0:00)
A10Y8MP
1 79956U 23999ZZF 23276.49919926  .00000000  00000-0  00000-0 0 21890
2 79956 036.3653 355.9999 6045197 227.7287 332.4837 00.89311632    03

# Worst residual: 197.38 km
# MJD 60221.000000 (2023 Oct  4  0:00)
A10Y8MP
1 79956U 23999ZZF 23277.49919926  .00000000  00000-0  00000-0 0 21891
2 79956 036.3421 355.9369 6094480 228.3911 291.9643 00.89229769    00

# Worst residual: 141.50 km
# MJD 60222.000000 (2023 Oct  5  0:00)
A10Y8MP
1 79956U 23999ZZF 23278.49919926  .00000000  00000-0  00000-0 0 21892
2 79956 036.3204 355.8673 6134219 228.9713 251.7839 00.89072020    04

# Worst residual: 103.94 km
# MJD 60223.000000 (2023 Oct  6  0:00)
A10Y8MP
1 79956U 23999ZZF 23279.49919926  .00000000  00000-0  00000-0 0 21893
2 79956 036.2995 355.8120 6161108 229.6322 211.6770 00.88930882    05

# Worst residual: 82.87 km
# MJD 60224.000000 (2023 Oct  7  0:00)
A10Y8MP
1 79956U 23999ZZF 23280.49919926  .00000000  00000-0  00000-0 0 21895
2 79956 036.2750 355.7350 6198438 230.3758 171.6853 00.88873642    03

# Worst residual: 93.43 km
# MJD 60225.000000 (2023 Oct  8  0:00)
A10Y8MP
1 79956U 23999ZZF 23281.49919926  .00000000  00000-0  00000-0 0 21896
2 79956 036.2514 355.6556 6247438 231.1092 131.8403 00.88944017    07

# Worst residual: 116.85 km
# MJD 60226.000000 (2023 Oct  9  0:00)
A10Y8MP
1 79956U 23999ZZF 23282.49919926  .00000000  00000-0  00000-0 0 21897
2 79956 036.2293 355.5649 6297232 231.7619 092.1814 00.89109556    08

# Worst residual: 114.66 km
# MJD 60227.000000 (2023 Oct 10  0:00)
A10Y8MP
1 79956U 23999ZZF 23283.49919926  .00000000  00000-0  00000-0 0 21898
2 79956 036.2034 355.4842 6340845 232.4198 052.4723 00.89313377    00

# Worst residual: 97.02 km
# MJD 60228.000000 (2023 Oct 11  0:00)
A10Y8MP
1 79956U 23999ZZF 23284.49919926  .00000000  00000-0  00000-0 0 21899
2 79956 036.1716 355.3829 6380891 233.1442 012.5716 00.89489513    00

# Worst residual: 146.57 km
# MJD 60229.000000 (2023 Oct 12  0:00)
A10Y8MP
1 79956U 23999ZZF 23285.49919926  .00000000  00000-0  00000-0 0 21890
2 79956 036.1342 355.2740 6426670 233.9047 332.5282 00.89502739    00

# Worst residual: 185.83 km
# MJD 60230.000000 (2023 Oct 13  0:00)
A10Y8MP
1 79956U 23999ZZF 23286.49919926  .00000000  00000-0  00000-0 0 21891
2 79956 036.1005 355.1952 6471004 234.5595 292.6140 00.89366561    06

# Worst residual: 148.66 km
# MJD 60231.000000 (2023 Oct 14  0:00)
A10Y8MP
1 79956U 23999ZZF 23287.49919926  .00000000  00000-0  00000-0 0 21892
2 79956 036.0661 355.0766 6507344 235.1954 252.8640 00.89185740    09

# Worst residual: 100.66 km
# MJD 60232.000000 (2023 Oct 15  0:00)
A10Y8MP
1 79956U 23999ZZF 23288.49919926  .00000000  00000-0  00000-0 0 21893
2 79956 036.0319 354.9789 6530240 235.8706 213.1054 00.89002086    05

# Worst residual: 81.64 km
# MJD 60233.000000 (2023 Oct 16  0:00)
A10Y8MP
1 79956U 23999ZZF 23289.49919926  .00000000  00000-0  00000-0 0 21894
2 79956 035.9940 354.8584 6564049 236.6307 173.3414 00.88922895    00

# Worst residual: 97.13 km
# MJD 60234.000000 (2023 Oct 17  0:00)
A10Y8MP
1 79956U 23999ZZF 23290.49919926  .00000000  00000-0  00000-0 0 21896
2 79956 035.9650 354.7469 6608881 237.3644 133.6358 00.88976730    07

# Worst residual: 113.33 km
# MJD 60235.000000 (2023 Oct 18  0:00)
A10Y8MP
1 79956U 23999ZZF 23291.49919926  .00000000  00000-0  00000-0 0 21897
2 79956 035.9368 354.6218 6654988 238.0272 094.0155 00.89124228    01

# Worst residual: 124.82 km
# MJD 60236.000000 (2023 Oct 19  0:00)
A10Y8MP
1 79956U 23999ZZF 23292.49919926  .00000000  00000-0  00000-0 0 21898
2 79956 035.9033 354.4857 6691631 238.7155 054.2942 00.89308637    00

# Worst residual: 96.45 km
# MJD 60237.000000 (2023 Oct 20  0:00)
A10Y8MP
1 79956U 23999ZZF 23293.49919926  .00000000  00000-0  00000-0 0 21899
2 79956 035.8640 354.3442 6726150 239.4482 014.3659 00.89484256    02

# Worst residual: 150.54 km
# MJD 60238.000000 (2023 Oct 21  0:00)
A10Y8MP
1 79956U 23999ZZF 23294.49919926  .00000000  00000-0  00000-0 0 21890
2 79956 035.8164 354.1848 6765269 240.2107 334.3113 00.89497278    07

# Worst residual: 193.10 km
# MJD 60239.000000 (2023 Oct 22  0:00)
A10Y8MP
1 79956U 23999ZZF 23295.49919926  .00000000  00000-0  00000-0 0 21891
2 79956 035.7713 354.0361 6804355 240.9008 294.3795 00.89360288    03

# Worst residual: 158.38 km
# MJD 60240.000000 (2023 Oct 23  0:00)
A10Y8MP
1 79956U 23999ZZF 23296.49919926  .00000000  00000-0  00000-0 0 21892
2 79956 035.7302 353.8973 6834345 241.5302 254.6168 00.89181852    00

# Worst residual: 89.70 km
# MJD 60241.000000 (2023 Oct 24  0:00)
A10Y8MP
1 79956U 23999ZZF 23297.49919926  .00000000  00000-0  00000-0 0 21893
2 79956 035.6903 353.7446 6852644 242.2201 214.8530 00.89003532    07

# Worst residual: 79.40 km
# MJD 60242.000000 (2023 Oct 25  0:00)
A10Y8MP
1 79956U 23999ZZF 23298.49919926  .00000000  00000-0  00000-0 0 21894
2 79956 035.6503 353.5764 6881249 242.9760 175.1024 00.88933980    09

# Worst residual: 97.06 km
# MJD 60243.000000 (2023 Oct 26  0:00)
A10Y8MP
1 79956U 23999ZZF 23299.49919926  .00000000  00000-0  00000-0 0 21895
2 79956 035.6114 353.4135 6919872 243.7232 135.3749 00.88982234    03

# Worst residual: 141.95 km
# MJD 60244.000000 (2023 Oct 27  0:00)
A10Y8MP
1 79956U 23999ZZF 23300.49919926  .00000000  00000-0  00000-0 0 21898
2 79956 035.5789 353.2449 6959735 244.4084 095.7200 00.89114881    08

# Worst residual: 136.61 km
# MJD 60245.000000 (2023 Oct 28  0:00)
A10Y8MP
1 79956U 23999ZZF 23301.49919926  .00000000  00000-0  00000-0 0 21899
2 79956 035.5403 353.0508 6993350 245.1070 055.9904 00.89312998    07

# Worst residual: 103.27 km
# MJD 60246.000000 (2023 Oct 29  0:00)
A10Y8MP
1 79956U 23999ZZF 23302.49919926  .00000000  00000-0  00000-0 0 21890
2 79956 035.4958 352.8474 7023096 245.8758 016.0230 00.89485494    04
